COSMOS 1933             
1 18958U 88020A   25359.35022329  .00004374  00000+0  21851-3 0  9996
2 18958  82.5141 324.4177 0006371  94.5080 265.6881 15.17211517 38957
SL-3 R/B                
1 19046U 88032B   25359.70878102  .00005598  00000+0  26913-3 0  9998
2 19046  97.5098 338.3410 0027958 129.1130 231.2596 15.18868477 40872
SL-16 R/B               
1 19120U 88039B   25359.78276046 -.00000081  00000+0 -15457-4 0  9991
2 19120  71.0128 224.8208 0019541  93.9502 266.3858 14.19599580947894
COSMOS 1953             
1 19210U 88050A   25351.75027580  .00004793  00000+0  17925-3 0  9993
2 19210  82.5093 240.5536 0013540  56.0210 304.2313 15.26995692 25270
SL-8 R/B                
1 19257U 88053B   25359.74938946  .00000262  00000+0  93569-4 0  9997
2 19257  74.0467 248.7432 0018961  87.9702 327.9466 14.38866963965968
COSMOS 1975             
1 19573U 88093A   25359.62845561  .00008296  00000+0  31444-3 0  9997
2 19573  82.5191 191.9240 0013035  72.6432 287.6231 15.26649281  8107
SL-14 R/B               
1 19574U 88093B   25359.71743250  .00000595  00000+0  65847-4 0  9999
2 19574  82.5317 111.4891 0019259 283.8696 189.9455 14.85562955990051
SL-16 R/B               
1 19650U 88102B   25359.59668316  .00000100  00000+0  74437-4 0  9997
2 19650  71.0007 307.3906 0012289 129.8298 230.3909 14.16142310916406
INTERCOSMOS 24          
1 20261U 89080A   25359.53485272  .00000764  00000+0  21581-3 0  9992
2 20261  82.6054 152.6344 1189004 104.8516 268.7104 12.59460010657465
SL-14 R/B               
1 20262U 89080C   25359.70511398  .00000325  00000+0  94609-4 0  9996
2 20262  82.5914 220.6973 1230411 353.9611   4.7716 12.50423203650909
DELTA 1 R/B             
1 20323U 89089B   25359.60785476  .00000375  00000+0  10157-3 0  9992
2 20323  97.0742 213.8054 0069088 357.9796   2.1112 14.50582425884992
ARIANE 40 R/B           
1 20443U 90005H   25359.73465052  .00000302  00000+0  10984-3 0  9992
2 20443  98.3226  57.5444 0011160  70.5477 289.6916 14.39807820882161
